[{"OBJECT_NAME":"STARLINK-30412","OBJECT_ID":"2023-141Q","EPOCH":"2026-03-09T21:33:40.617792","MEAN_MOTION":15.30193138,"ECCENTRICITY":0.00013384,"INCLINATION":53.1605,"RA_OF_ASC_NODE":282.8927,"ARG_OF_PERICENTER":85.3647,"MEAN_ANOMALY":274.7507,"EPHEMERIS_TYPE":0,"CLASSIFICATION_TYPE":"U","NORAD_CAT_ID":57854,"ELEMENT_SET_NO":999,"REV_AT_EPOCH":14036,"BSTAR":7.7272397e-5,"MEAN_MOTION_DOT":1.93e-5,"MEAN_MOTION_DDOT":0},{"OBJECT_NAME":"TRANSPORTER-1 OBJECT L","OBJECT_ID":"2021-006L","EPOCH":"2026-03-09T22:38:42.795168","MEAN_MOTION":15.33192932,"ECCENTRICITY":0.00114726,"INCLINATION":97.2368,"RA_OF_ASC_NODE":117.6447,"ARG_OF_PERICENTER":180.5165,"MEAN_ANOMALY":179.6068,"EPHEMERIS_TYPE":0,"CLASSIFICATION_TYPE":"U","NORAD_CAT_ID":47423,"ELEMENT_SET_NO":999,"REV_AT_EPOCH":28445,"BSTAR":0.00025636794,"MEAN_MOTION_DOT":8.162e-5,"MEAN_MOTION_DDOT":0}]
